HUANJING 1A (HJ-1A)     
1 33320U 08041A   26178.95465987  .00000730  00000+0  93478-4 0  9995
2 33320  97.6681 164.3764 0020564 101.6856 258.6668 14.84009074960008
HUANJING 1B (HJ-1B)     
1 33321U 08041B   26178.92864569  .00001245  00000+0  15643-3 0  9991
2 33321  97.6517 167.4905 0037073 145.9381 214.4224 14.83335436960006
HODOYOSHI-4             
1 40011U 14033B   26178.92689043  .00001678  00000+0  18706-3 0  9998
2 40011  97.5450   3.2311 0022034 270.4674  89.4018 14.88151466650408
HODOYOSHI-3             
1 40015U 14033F   26178.89577606  .00001039  00000+0  12575-3 0  9998
2 40015  97.6426 341.5058 0031821 321.3659  38.5280 14.85409015649211
HIMAWARI-8              
1 40267U 14060A   26178.90538914 -.00000263  00000+0  00000+0 0  9993
2 40267   0.0143 336.6087 0001115 116.7412 289.2575  1.00273864 42861
HIMAWARI-9              
1 41836U 16064A   26178.90538914 -.00000263  00000+0  00000+0 0  9992
2 41836   0.0160  53.4531 0001189  61.8863 267.3660  1.00270693 35313
ICESAT-2                
1 43613U 18070A   26178.89346719  .00009038  00000+0  32867-3 0  9992
2 43613  92.0086 293.8713 0006238  95.0842 265.1120 15.28212813434094
HYSIS                   
1 43719U 18096A   26178.97119685  .00000977  00000+0  14043-3 0  9995
2 43719  97.9841 245.6347 0001861  92.1678 267.9746 14.78637728409012
ICEYE-X2                
1 43800U 18099AU  26178.95377882  .00005902  00000+0  29462-3 0  9996
2 43800  97.4361 232.6055 0008487 262.3726  97.6544 15.17846159414455
ICEYE-X11               
1 48918U 21059AR  26178.89912076  .02188408  25552-5  13227-2 0  9995
2 48918  97.6183  19.9581 0006755 260.0214 100.0311 16.18273954279715
